37192,GLOBALSTAR M075,2010,114.08,700.0,+,52.0,Active,1,LEO,Kazakhstan,Globalstar,Commercial,Communications,Soyuz,1 37192U 10054E   24112.21504378 -.00000073  00000+0  17328-3 0  9996,2 37192  51.9973  26.3484 0000754  71.2540  93.5626 12.62272757622710,12.62272757,7.54e-05,LEO
37193,GLOBALSTAR M073,2010,114.08,700.0,+,52.01,Active,1,LEO,Kazakhstan,Globalstar,Commercial,Communications,Soyuz,1 37193U 10054F   24111.72143126 -.00000072  00000+0  17601-3 0  9995,2 37193  52.0059 301.3498 0000877 105.7644 334.8970 12.62264086624488,12.62264086,8.77e-05,LEO
37739,GLOBALSTAR M083,2011,114.08,700.0,+,51.99,Active,1,LEO,Kazakhstan,Globalstar,Commercial,Communications,Soyuz,1 37739U 11033A   24112.60605470 -.00000080  00000+0  13294-3 0  9995,2 37739  51.9855 247.9624 0000647  94.0533 349.1035 12.62269074593617,12.62269074,6.47e-05,LEO
37740,GLOBALSTAR M088,2011,114.08,700.0,+,51.97,Active,1,LEO,Kazakhstan,Globalstar,Commercial,Communications,Soyuz,1 37740U 11033B   24112.59816788 -.00000054  00000+0  27571-3 0  9995,2 37740  51.9711 153.8329 0000381  78.3502  89.4867 12.62267321589157,12.62267321,3.81e-05,LEO
37741,GLOBALSTAR M091,2011,114.08,700.0,+,52.0,Active,1,LEO,Kazakhstan,Globalstar,Commercial,Communications,Soyuz,1 37741U 11033C   24112.19609836 -.00000071  00000+0  18259-3 0  9998,2 37741  51.9975 117.8567 0000531  50.3914  29.2881 12.62261782589892,12.62261782,5.31e-05,LEO
37742,GLOBALSTAR M085,2011,114.08,700.0,+,51.99,Active,1,LEO,Kazakhstan,Globalstar,Commercial,Communications,Soyuz,1 37742U 11033D   24112.27707598 -.00000088  00000+0  88017-4 0  9990,2 37742  51.9873  69.0207 0000698  53.2387  94.4402 12.62269789590417,12.62269789,6.98e-05,LEO
37743,GLOBALSTAR M081,2011,114.08,700.0,+,52.0,Active,1,LEO,Kazakhstan,Globalstar,Commercial,Communications,Soyuz,1 37743U 11033E   24112.30348611 -.00000091  00000+0  72286-4 0  9997,2 37743  51.9964  71.4670 0000792  65.0826  82.5656 12.62264387590568,12.62264387,7.92e-05,LEO
37744,GLOBALSTAR M089,2011,114.08,700.0,+,52.0,Active,1,LEO,Kazakhstan,Globalstar,Commercial,Communications,Soyuz,1 37744U 11033F   24112.18479013 -.00000074  00000+0  16728-3 0  9994,2 37744  51.9959  26.1384 0000692 105.1672  41.9150 12.62262242591394,12.62262242,6.92e-05,LEO
